{
    "CCSDS_OMM_VERS": "3.0",
    "COMMENT": "GENERATED VIA SPACE-TRACK.ORG API",
    "CREATION_DATE": "2025-11-24T07:26:19",
    "ORIGINATOR": "18 SPCS",
    "OBJECT_NAME": "BEIDOU 3M21",
    "OBJECT_ID": "2019-078A",
    "CENTER_NAME": "EARTH",
    "REF_FRAME": "TEME",
    "TIME_SYSTEM": "UTC",
    "MEAN_ELEMENT_THEORY": "SGP4",
    "EPOCH": "2025-11-23T23:10:53.169024",
    "MEAN_MOTION": "1.86232081",
    "ECCENTRICITY": "0.00054500",
    "INCLINATION": "54.1258",
    "RA_OF_ASC_NODE": "307.0451",
    "ARG_OF_PERICENTER": "22.0165",
    "MEAN_ANOMALY": "338.0006",
    "EPHEMERIS_TYPE": "0",
    "CLASSIFICATION_TYPE": "U",
    "NORAD_CAT_ID": "44793",
    "ELEMENT_SET_NO": "999",
    "REV_AT_EPOCH": "4082",
    "BSTAR": "0.00000000000000",
    "MEAN_MOTION_DOT": "-0.00000049",
    "MEAN_MOTION_DDOT": "0.0000000000000",
    "SEMIMAJOR_AXIS": "27906.081",
    "PERIOD": "773.229",
    "APOAPSIS": "21543.154",
    "PERIAPSIS": "21512.737",
    "OBJECT_TYPE": "PAYLOAD",
    "RCS_SIZE": "LARGE",
    "COUNTRY_CODE": "PRC",
    "LAUNCH_DATE": "2019-11-23",
    "SITE": "XSC",
    "DECAY_DATE": null,
    "FILE": "4897015",
    "GP_ID": "303368028",
    "TLE_LINE0": "0 BEIDOU 3M21",
    "TLE_LINE1": "1 44793U 19078A   25327.96589316 -.00000049  00000-0  00000+0 0  9991",
    "TLE_LINE2": "2 44793  54.1258 307.0451 0005450  22.0165 338.0006  1.86232081 40829"
}